ONEWEB-0156             
1 48052U 21025L   24028.33217633  .00000018  00000+0  13591-4 0  9994
2 48052  87.9010 133.5580 0001592 106.9393 253.1910 13.13470964139258
ONEWEB-0161             
1 48053U 21025M   24028.45755369 -.00000130  00000+0 -39223-3 0  9997
2 48053  87.9014 133.5367 0001556 100.0271 260.1034 13.13468003139207
ONEWEB-0158             
1 48054U 21025N   24028.34329481  .00000307  00000+0  80443-3 0  9992
2 48054  87.9010 133.5537 0001783 110.6243 249.5078 13.13470122139317
ONEWEB-0157             
1 48055U 21025P   24028.36709121  .00000274  00000+0  71654-3 0  9995
2 48055  87.9011 133.5657 0001414 105.3892 254.7394 13.13469265139252
ONEWEB-0162             
1 48056U 21025Q   24028.33058654 -.00000053  00000+0 -17913-3 0  9996
2 48056  87.9006 133.5705 0001590 106.7850 253.3454 13.13471135139223
ONEWEB-0155             
1 48057U 21025R   24028.35122731  .00000385  00000+0  10200-2 0  9994
2 48057  87.9010 133.5749 0001701 106.4974 253.6342 13.13469724139360
ONEWEB-0149             
1 48058U 21025S   24028.37185282  .00000112  00000+0  27196-3 0  9998
2 48058  87.9012 133.5679 0001401 111.2434 248.8845 13.13470958139171
ONEWEB-0148             
1 48059U 21025T   24028.33693933  .00000168  00000+0  42532-3 0  9994
2 48059  87.9012 133.5797 0000998 112.8072 247.3163 13.13471886139299
